ORBCOMM FM115           
1 41186U 15081H   25130.54372946  .00000779  00000+0  18684-3 0  9998
2 41186  46.9979 218.5813 0001715 253.2574 106.8125 14.62441435502268
ORBCOMM FM108           
1 41187U 15081J   25130.75782811  .00000936  00000+0  23796-3 0  9993
2 41187  47.0051 283.7263 0002545 158.1024 201.9971 14.58093023501334
ORBCOMM FM117           
1 41188U 15081K   25130.72404733  .00000934  00000+0  23753-3 0  9996
2 41188  47.0014 282.6602 0003067 163.4709 196.6277 14.58095259501374
ORBCOMM FM116           
1 41189U 15081L   25130.91864960  .00001039  00000+0  26002-3 0  9997
2 41189  47.0037  11.5880 0002542 334.6382  25.4378 14.58107731500215
